ONEWEB-0410             
1 51622U 22012A   24053.59262841  .00000010  00000+0 -65793-5 0  9990
2 51622  87.9255 174.0402 0002386 135.8171 224.3151 13.17648774102343
ONEWEB-0411             
1 51623U 22012B   24053.43022580 -.00000208  00000+0 -63307-3 0  9995
2 51623  87.8940 204.2637 0001278  99.3238 260.8034 13.10370749 98523
ONEWEB-0416             
1 51625U 22012D   24053.43835171 -.00000473  00000+0 -13904-2 0  9996
2 51625  87.8943 204.2777 0001607 103.9414 256.1892 13.10372271 98563
ONEWEB-0423             
1 51627U 22012F   24053.36797530  .00000060  00000+0  12034-3 0  9990
2 51627  87.9258 174.0810 0001796 106.3435 253.7895 13.17648890102311
ONEWEB-0425             
1 51628U 22012G   24053.44809845 -.00000556  00000+0 -16302-2 0  9996
2 51628  87.8942 204.2629 0001974 109.7176 250.4164 13.10373968 98560
ONEWEB-0428             
1 51629U 22012H   24053.42860546 -.00000147  00000+0 -45682-3 0  9990
2 51629  87.8938 204.2806 0001618  86.8970 273.2342 13.10370746 98523
